OBJECT_NAME,OBJECT_ID,EPOCH,MEAN_MOTION,ECCENTRICITY,INCLINATION,RA_OF_ASC_NODE,ARG_OF_PERICENTER,MEAN_ANOMALY,EPHEMERIS_TYPE,CLASSIFICATION_TYPE,NORAD_CAT_ID,ELEMENT_SET_NO,REV_AT_EPOCH,BSTAR,MEAN_MOTION_DOT,MEAN_MOTION_DDOT
INTELSAT 21 (IS-21),2012-045A,2026-06-08T11:23:44.099808,1.00270275,.0001793,0.0275,278.1707,180.5787,271.0605,0,U,38749,999,5043,0,-.269E-5,0
INTELSAT 23 (IS-23),2012-057A,2026-06-08T18:15:47.462400,1.00275020,.0000514,0.0052,337.0772,121.5691,19.4614,0,U,38867,999,4987,0,-.268E-5,0
FM-6,2013-058A,2026-06-08T15:06:37.024416,1.00255605,.0002771,0.0107,82.6412,69.5183,215.1325,0,U,39360,999,4598,0,.3E-7,0
INTELSAT 30 (IS-30),2014-062A,2026-06-08T14:38:21.870240,1.00267785,.0001038,0.0207,37.6201,351.9550,351.9176,0,U,40271,999,670,0,-.134E-5,0
DIRECTV 14,2014-078B,2026-06-08T14:37:21.964800,1.00272423,.0000246,0.0092,353.8163,193.1305,190.1553,0,U,40333,999,4195,0,-.109E-5,0
DIRECTV 15,2015-026A,2026-06-08T16:18:58.754880,1.00271533,.000044,0.0182,358.3050,278.8751,121.7694,0,U,40663,999,4037,0,-.87E-6,0
SKY MEXICO-1,2015-026B,2026-06-08T13:00:27.388224,1.00271113,.00021607,0.0157,291.0801,165.7720,276.3986,0,U,40664,999,4036,0,-.218E-5,0
INTELSAT 34 (IS-34),2015-039A,2026-06-08T18:15:10.020960,1.00271948,.0000565,0.0127,315.4897,36.6323,123.3386,0,U,40874,999,3955,0,-.269E-5,0
INTELSAT 31 (IS-31),2016-035A,2026-06-08T14:38:21.870240,1.00272044,.0000809,0.0211,259.1393,346.2683,136.1436,0,U,41581,999,3659,0,-.135E-5,0
INTELSAT 36 (IS-36),2016-053A,2026-06-08T20:41:40.307712,1.00270711,.0001928,0.0100,350.3417,345.2697,300.5515,0,U,41747,999,3587,0,-.8E-7,0
INTELSAT 32E (IS-32E),2017-007B,2026-06-08T18:18:39.686112,1.00270889,.000069,0.0014,354.1287,335.2473,159.2716,0,U,41945,999,3414,0,-.253E-5,0
INTELSAT 35E (IS-35E),2017-041A,2026-06-08T18:21:09.445824,1.00269596,.0001658,0.0195,350.3467,86.0278,61.5846,0,U,42818,999,3273,0,0,0
INTELSAT 37E (IS-37E),2017-059A,2026-06-08T18:25:46.503840,1.00268371,.0002337,0.0190,351.6529,109.2997,54.6425,0,U,42950,999,3198,0,0,0
AZERSPACE 2 (IS-38),2018-074A,2026-06-08T18:43:52.519008,1.00271138,.0001314,0.0020,6.6271,71.4835,145.1369,0,U,43632,999,2836,0,.153E-5,0
HORIZONS-3E,2018-074B,2026-06-08T17:36:33.212736,1.00270837,.0000923,0.0065,245.9115,25.6016,58.7410,0,U,43633,999,2825,0,-.14E-6,0
AT&T T-16,2019-034A,2026-06-08T16:19:28.708032,1.00268929,.0000576,0.0198,59.9345,197.7946,143.3565,0,U,44333,999,2554,0,-.99E-6,0
INTELSAT 39 (IS-39),2019-049B,2026-06-08T20:39:37.039104,1.00271131,.00006,0.0191,316.5234,342.2430,330.3400,0,U,44476,999,2504,0,.5E-6,0
GALAXY 30 (G-30),2020-056C,2026-06-08T17:55:16.418784,1.00273026,.0002187,0.0161,305.4442,127.9721,327.5322,0,U,46114,999,2120,0,.53E-6,0
GALAXY 33 (G-33),2022-128A,2026-06-08T17:53:01.633920,1.00271217,.0001879,0.0135,306.5599,137.8846,307.9610,0,U,54026,999,1365,0,.95E-6,0
GALAXY 34 (G-34),2022-128B,2026-06-08T16:11:29.474016,1.00276523,.0001882,0.0115,328.7845,125.5179,276.6448,0,U,54027,999,1382,0,.74E-6,0
GALAXY 31 (G-31),2022-153A,2026-06-08T16:13:44.258016,1.00271958,.0001315,0.0165,267.3075,169.6015,302.5940,0,U,54243,999,704,0,.29E-6,0
GALAXY 32 (G-32),2022-153B,2026-06-08T12:56:57.723072,1.00271189,.00022122,0.0090,327.2332,70.5105,322.4310,0,U,54244,999,1305,0,-.158E-5,0
GALAXY 35 (G-35),2022-170A,2026-06-08T14:53:39.517728,1.00271398,.0002082,0.0282,93.5342,347.4986,306.2975,0,U,54741,999,1280,0,-.146E-5,0
GALAXY 36 (G-36),2022-170B,2026-06-08T14:40:14.191104,1.00271090,.00027,0.0144,154.5476,288.3892,305.1285,0,U,54742,999,1268,0,-.169E-5,0
GALAXY 37 (G-37),2023-112A,2026-06-08T17:54:46.468224,1.00271696,.0001936,0.0175,348.9937,90.5600,319.2780,0,U,57493,999,1045,0,.64E-6,0
