INTELSAT 21 (IS-21)     
1 38749U 12045A   26159.47481597 -.00000269  00000+0  00000+0 0  9997
2 38749   0.0275 278.1707 0001793 180.5787 271.0605  1.00270275 50432
INTELSAT 23 (IS-23)     
1 38867U 12057A   26159.76096600 -.00000268  00000+0  00000+0 0  9999
2 38867   0.0052 337.0772 0000514 121.5691  19.4614  1.00275020 49875
FM-6                    
1 39360U 13058A   26159.62959519  .00000003  00000+0  00000+0 0  9998
2 39360   0.0107  82.6412 0002771  69.5183 215.1325  1.00255605 45982
INTELSAT 30 (IS-30)     
1 40271U 14062A   26159.60997535 -.00000134  00000+0  00000+0 0  9991
2 40271   0.0207  37.6201 0001038 351.9550 351.9176  1.00267785  6705
DIRECTV 14              
1 40333U 14078B   26159.60928200 -.00000109  00000+0  00000+0 0  9992
2 40333   0.0092 353.8163 0000246 193.1305 190.1553  1.00272423 41953
DIRECTV 15              
1 40663U 15026A   26159.67984670 -.00000087  00000+0  00000+0 0  9997
2 40663   0.0182 358.3050 0000440 278.8751 121.7694  1.00271533 40378
SKY MEXICO-1            
1 40664U 15026B   26159.54198366 -.00000218  00000+0  00000+0 0  9999
2 40664   0.0157 291.0801 0002160 165.7720 276.3986  1.00271113 40363
INTELSAT 34 (IS-34)     
1 40874U 15039A   26159.76053265 -.00000269  00000+0  00000+0 0  9994
2 40874   0.0127 315.4897 0000565  36.6323 123.3386  1.00271948 39551
INTELSAT 31 (IS-31)     
1 41581U 16035A   26159.60997535 -.00000135  00000+0  00000+0 0  9999
2 41581   0.0211 259.1393 0000809 346.2683 136.1436  1.00272044 36593
INTELSAT 36 (IS-36)     
1 41747U 16053A   26159.86227208 -.00000008  00000+0  00000+0 0  9993
2 41747   0.0100 350.3417 0001928 345.2697 300.5515  1.00270711 35876
INTELSAT 32E (IS-32E)   
1 41945U 17007B   26159.76295933 -.00000253  00000+0  00000+0 0  9994
2 41945   0.0014 354.1287 0000690 335.2473 159.2716  1.00270889 34140
INTELSAT 35E (IS-35E)   
1 42818U 17041A   26159.76469266  .00000000  00000+0  00000+0 0  9993
2 42818   0.0195 350.3467 0001658  86.0278  61.5846  1.00269596 32732
INTELSAT 37E (IS-37E)   
1 42950U 17059A   26159.76789935  .00000000  00000+0  00000+0 0  9997
2 42950   0.0190 351.6529 0002337 109.2997  54.6425  1.00268371 31980
AZERSPACE 2 (IS-38)     
1 43632U 18074A   26159.78046897  .00000153  00000+0  00000+0 0  9997
2 43632   0.0020   6.6271 0001314  71.4835 145.1369  1.00271138 28362
HORIZONS-3E             
1 43633U 18074B   26159.73371774 -.00000014  00000+0  00000+0 0  9995
2 43633   0.0065 245.9115 0000923  25.6016  58.7410  1.00270837 28253
AT&T T-16               
1 44333U 19034A   26159.68019338 -.00000099  00000+0  00000+0 0  9992
2 44333   0.0198  59.9345 0000576 197.7946 143.3565  1.00268929 25543
INTELSAT 39 (IS-39)     
1 44476U 19049B   26159.86084536  .00000050  00000+0  00000+0 0  9994
2 44476   0.0191 316.5234 0000600 342.2430 330.3400  1.00271131 25046
GALAXY 30 (G-30)        
1 46114U 20056C   26159.74671781  .00000053  00000+0  00000+0 0  9999
2 46114   0.0161 305.4442 0002187 127.9721 327.5322  1.00273026 21205
GALAXY 33 (G-33)        
1 54026U 22128A   26159.74515780  .00000095  00000+0  00000+0 0  9994
2 54026   0.0135 306.5599 0001879 137.8846 307.9610  1.00271217 13659
GALAXY 34 (G-34)        
1 54027U 22128B   26159.67464669  .00000074  00000+0  00000+0 0  9993
2 54027   0.0115 328.7845 0001882 125.5179 276.6448  1.00276523 13820
GALAXY 31 (G-31)        
1 54243U 22153A   26159.67620669  .00000029  00000+0  00000+0 0  9995
2 54243   0.0165 267.3075 0001315 169.6015 302.5940  1.00271958  7047
GALAXY 32 (G-32)        
1 54244U 22153B   26159.53955698 -.00000158  00000+0  00000+0 0  9998
2 54244   0.0090 327.2332 0002212  70.5105 322.4310  1.00271189 13050
GALAXY 35 (G-35)        
1 54741U 22170A   26159.62059627 -.00000146  00000+0  00000+0 0  9993
2 54741   0.0282  93.5342 0002082 347.4986 306.2975  1.00271398 12808
GALAXY 36 (G-36)        
1 54742U 22170B   26159.61127536 -.00000169  00000+0  00000+0 0  9993
2 54742   0.0144 154.5476 0002700 288.3892 305.1285  1.00271090 12685
GALAXY 37 (G-37)        
1 57493U 23112A   26159.74637116  .00000064  00000+0  00000+0 0  9993
2 57493   0.0175 348.9937 0001936  90.5600 319.2780  1.00271696 10457
